[
  {
    "OBJECT_NAME": "STARLINK-1020",
    "OBJECT_ID": "19074N",
    "EPOCH": "2025-11-11T04:32:18.552768",
    "MEAN_MOTION": 15.06402827,
    "ECCENTRICITY": 0.0001938,
    "INCLINATION": 53.0549,
    "RA_OF_ASC_NODE": 18.588,
    "ARG_OF_PERICENTER": 103.7233,
    "MEAN_ANOMALY": 256.3972,
    "EPHEMERIS_TYPE": 0,
    "CLASSIFICATION_TYPE": "U",
    "NORAD_CAT_ID": 44725,
    "ELEMENT_SET_NO": 999,
    "REV_AT_EPOCH": 33060,
    "BSTAR": 0.00015491,
    "MEAN_MOTION_DOT": 2.027e-05,
    "MEAN_MOTION_DDOT": 0.0,
    "TLE_LINE1": "1 44725U 19074N   25315.18910362  .00002027  00000+0  15491-3 0  9992",
    "TLE_LINE2": "2 44725  53.0549  18.5880 0001938 103.7233 256.3972 15.06402827330601",
    "COMMENT": "Grouped by shell and plane from TLE"
  },
  {
    "OBJECT_NAME": "STARLINK-1036",
    "OBJECT_ID": "19074AE",
    "EPOCH": "2025-11-11T05:14:45.782880",
    "MEAN_MOTION": 15.06398028,
    "ECCENTRICITY": 0.0001312,
    "INCLINATION": 53.0543,
    "RA_OF_ASC_NODE": 18.4543,
    "ARG_OF_PERICENTER": 96.9747,
    "MEAN_ANOMALY": 263.1391,
    "EPHEMERIS_TYPE": 0,
    "CLASSIFICATION_TYPE": "U",
    "NORAD_CAT_ID": 44741,
    "ELEMENT_SET_NO": 999,
    "REV_AT_EPOCH": 33061,
    "BSTAR": 0.0,
    "MEAN_MOTION_DOT": -1.283e-05,
    "MEAN_MOTION_DDOT": 0.0,
    "TLE_LINE1": "1 44741U 19074AE  25315.21858545 -.00001283  00000+0 -67226-4 0  9997",
    "TLE_LINE2": "2 44741  53.0543  18.4543 0001312  96.9747 263.1391 15.06398028330616",
    "COMMENT": "Grouped by shell and plane from TLE"
  },
  {
    "OBJECT_NAME": "STARLINK-1068",
    "OBJECT_ID": "19074BM",
    "EPOCH": "2025-11-11T04:11:04.452576",
    "MEAN_MOTION": 15.06406642,
    "ECCENTRICITY": 0.0001054,
    "INCLINATION": 53.0548,
    "RA_OF_ASC_NODE": 18.654,
    "ARG_OF_PERICENTER": 102.6142,
    "MEAN_ANOMALY": 257.4965,
    "EPHEMERIS_TYPE": 0,
    "CLASSIFICATION_TYPE": "U",
    "NORAD_CAT_ID": 44772,
    "ELEMENT_SET_NO": 999,
    "REV_AT_EPOCH": 33060,
    "BSTAR": 5.581000000000001e-05,
    "MEAN_MOTION_DOT": 5.5e-06,
    "MEAN_MOTION_DDOT": 0.0,
    "TLE_LINE1": "1 44772U 19074BM  25315.17435709  .00000550  00000+0  55810-4 0  9999",
    "TLE_LINE2": "2 44772  53.0548  18.6540 0001054 102.6142 257.4965 15.06406642330605",
    "COMMENT": "Grouped by shell and plane from TLE"
  },
  {
    "OBJECT_NAME": "STARLINK-2131",
    "OBJECT_ID": "21017G",
    "EPOCH": "2025-11-10T09:55:40.369152",
    "MEAN_MOTION": 15.06412568,
    "ECCENTRICITY": 0.0001293,
    "INCLINATION": 53.0555,
    "RA_OF_ASC_NODE": 17.0693,
    "ARG_OF_PERICENTER": 95.7247,
    "MEAN_ANOMALY": 264.3889,
    "EPHEMERIS_TYPE": 0,
    "CLASSIFICATION_TYPE": "U",
    "NORAD_CAT_ID": 47728,
    "ELEMENT_SET_NO": 999,
    "REV_AT_EPOCH": 25994,
    "BSTAR": 0.0,
    "MEAN_MOTION_DOT": -2.644e-05,
    "MEAN_MOTION_DDOT": 0.0,
    "TLE_LINE1": "1 47728U 21017G   25314.41366168 -.00002644  00000+0 -15859-3 0  9997",
    "TLE_LINE2": "2 47728  53.0555  17.0693 0001293  95.7247 264.3889 15.06412568259945",
    "COMMENT": "Grouped by shell and plane from TLE"
  },
  {
    "OBJECT_NAME": "STARLINK-2147",
    "OBJECT_ID": "21017Q",
    "EPOCH": "2025-11-11T05:07:28.159968",
    "MEAN_MOTION": 15.06395507,
    "ECCENTRICITY": 0.0001369,
    "INCLINATION": 53.0552,
    "RA_OF_ASC_NODE": 13.4797,
    "ARG_OF_PERICENTER": 82.9954,
    "MEAN_ANOMALY": 277.1191,
    "EPHEMERIS_TYPE": 0,
    "CLASSIFICATION_TYPE": "U",
    "NORAD_CAT_ID": 47736,
    "ELEMENT_SET_NO": 999,
    "REV_AT_EPOCH": 26006,
    "BSTAR": 0.00012725,
    "MEAN_MOTION_DOT": 1.614e-05,
    "MEAN_MOTION_DDOT": 0.0,
    "TLE_LINE1": "1 47736U 21017Q   25315.21352037  .00001614  00000+0  12725-3 0  9998",
    "TLE_LINE2": "2 47736  53.0552  13.4797 0001369  82.9954 277.1191 15.06395507260069",
    "COMMENT": "Grouped by shell and plane from TLE"
  },
  {
    "OBJECT_NAME": "STARLINK-2156",
    "OBJECT_ID": "21017W",
    "EPOCH": "2025-11-11T03:37:14.295360",
    "MEAN_MOTION": 15.06404985,
    "ECCENTRICITY": 0.0001402,
    "INCLINATION": 53.0551,
    "RA_OF_ASC_NODE": 13.7618,
    "ARG_OF_PERICENTER": 78.902,
    "MEAN_ANOMALY": 281.2126,
    "EPHEMERIS_TYPE": 0,
    "CLASSIFICATION_TYPE": "U",
    "NORAD_CAT_ID": 47742,
    "ELEMENT_SET_NO": 999,
    "REV_AT_EPOCH": 26005,
    "BSTAR": 8.118e-05,
    "MEAN_MOTION_DOT": 9.28e-06,
    "MEAN_MOTION_DDOT": 0.0,
    "TLE_LINE1": "1 47742U 21017W   25315.15085990  .00000928  00000+0  81180-4 0  9998",
    "TLE_LINE2": "2 47742  53.0551  13.7618 0001402  78.9020 281.2126 15.06404985260051",
    "COMMENT": "Grouped by shell and plane from TLE"
  },
  {
    "OBJECT_NAME": "STARLINK-2161",
    "OBJECT_ID": "21017AB",
    "EPOCH": "2025-11-11T07:20:11.120064",
    "MEAN_MOTION": 15.06409634,
    "ECCENTRICITY": 0.0001556,
    "INCLINATION": 53.0538,
    "RA_OF_ASC_NODE": 13.0618,
    "ARG_OF_PERICENTER": 94.766,
    "MEAN_ANOMALY": 265.3507,
    "EPHEMERIS_TYPE": 0,
    "CLASSIFICATION_TYPE": "U",
    "NORAD_CAT_ID": 47747,
    "ELEMENT_SET_NO": 999,
    "REV_AT_EPOCH": 26005,
    "BSTAR": 0.0008829399999999999,
    "MEAN_MOTION_DOT": 0.00012898,
    "MEAN_MOTION_DDOT": 0.0,
    "TLE_LINE1": "1 47747U 21017AB  25315.30568426  .00012898  00000+0  88294-3 0  9991",
    "TLE_LINE2": "2 47747  53.0538  13.0618 0001556  94.7660 265.3507 15.06409634260052",
    "COMMENT": "Grouped by shell and plane from TLE"
  },
  {
    "OBJECT_NAME": "STARLINK-2162",
    "OBJECT_ID": "21017AC",
    "EPOCH": "2025-11-11T03:58:29.038368",
    "MEAN_MOTION": 15.06401879,
    "ECCENTRICITY": 0.0002074,
    "INCLINATION": 53.057,
    "RA_OF_ASC_NODE": 13.6927,
    "ARG_OF_PERICENTER": 94.201,
    "MEAN_ANOMALY": 265.9216,
    "EPHEMERIS_TYPE": 0,
    "CLASSIFICATION_TYPE": "U",
    "NORAD_CAT_ID": 47748,
    "ELEMENT_SET_NO": 999,
    "REV_AT_EPOCH": 26000,
    "BSTAR": 0.00049505,
    "MEAN_MOTION_DOT": 7.1e-05,
    "MEAN_MOTION_DDOT": 0.0,
    "TLE_LINE1": "1 47748U 21017AC  25315.16561387  .00007100  00000+0  49505-3 0  9997",
    "TLE_LINE2": "2 47748  53.0570  13.6927 0002074  94.2010 265.9216 15.06401879260009",
    "COMMENT": "Grouped by shell and plane from TLE"
  },
  {
    "OBJECT_NAME": "STARLINK-2163",
    "OBJECT_ID": "21017AD",
    "EPOCH": "2025-11-10T10:48:46.298304",
    "MEAN_MOTION": 15.06410838,
    "ECCENTRICITY": 0.0001403,
    "INCLINATION": 53.0561,
    "RA_OF_ASC_NODE": 16.904,
    "ARG_OF_PERICENTER": 86.8754,
    "MEAN_ANOMALY": 273.2396,
    "EPHEMERIS_TYPE": 0,
    "CLASSIFICATION_TYPE": "U",
    "NORAD_CAT_ID": 47749,
    "ELEMENT_SET_NO": 999,
    "REV_AT_EPOCH": 25989,
    "BSTAR": 0.00082268,
    "MEAN_MOTION_DOT": 0.00011997,
    "MEAN_MOTION_DDOT": 0.0,
    "TLE_LINE1": "1 47749U 21017AD  25314.45053586  .00011997  00000+0  82268-3 0  9998",
    "TLE_LINE2": "2 47749  53.0561  16.9040 0001403  86.8754 273.2396 15.06410838259890",
    "COMMENT": "Grouped by shell and plane from TLE"
  },
  {
    "OBJECT_NAME": "STARLINK-2164",
    "OBJECT_ID": "21017AE",
    "EPOCH": "2025-11-11T03:47:51.397728",
    "MEAN_MOTION": 15.0641007,
    "ECCENTRICITY": 0.0001099,
    "INCLINATION": 53.0556,
    "RA_OF_ASC_NODE": 13.7263,
    "ARG_OF_PERICENTER": 89.1145,
    "MEAN_ANOMALY": 270.997,
    "EPHEMERIS_TYPE": 0,
    "CLASSIFICATION_TYPE": "U",
    "NORAD_CAT_ID": 47750,
    "ELEMENT_SET_NO": 999,
    "REV_AT_EPOCH": 26000,
    "BSTAR": 0.00013069,
    "MEAN_MOTION_DOT": 1.666e-05,
    "MEAN_MOTION_DDOT": 0.0,
    "TLE_LINE1": "1 47750U 21017AE  25315.15823377  .00001666  00000+0  13069-3 0  9996",
    "TLE_LINE2": "2 47750  53.0556  13.7263 0001099  89.1145 270.9970 15.06410070260004",
    "COMMENT": "Grouped by shell and plane from TLE"
  },
  {
    "OBJECT_NAME": "STARLINK-2169",
    "OBJECT_ID": "21017AG",
    "EPOCH": "2025-11-11T05:20:05.460288",
    "MEAN_MOTION": 15.06409454,
    "ECCENTRICITY": 8.47e-05,
    "INCLINATION": 53.0539,
    "RA_OF_ASC_NODE": 18.4387,
    "ARG_OF_PERICENTER": 42.6976,
    "MEAN_ANOMALY": 317.4078,
    "EPHEMERIS_TYPE": 0,
    "CLASSIFICATION_TYPE": "U",
    "NORAD_CAT_ID": 47752,
    "ELEMENT_SET_NO": 999,
    "REV_AT_EPOCH": 25999,
    "BSTAR": 0.00040373,
    "MEAN_MOTION_DOT": 5.739e-05,
    "MEAN_MOTION_DDOT": 0.0,
    "TLE_LINE1": "1 47752U 21017AG  25315.22228542  .00005739  00000+0  40373-3 0  9992",
    "TLE_LINE2": "2 47752  53.0539  18.4387 0000847  42.6976 317.4078 15.06409454259998",
    "COMMENT": "Grouped by shell and plane from TLE"
  },
  {
    "OBJECT_NAME": "STARLINK-2194",
    "OBJECT_ID": "21017BB",
    "EPOCH": "2025-11-11T04:53:32.264160",
    "MEAN_MOTION": 15.06388564,
    "ECCENTRICITY": 0.0001364,
    "INCLINATION": 53.0558,
    "RA_OF_ASC_NODE": 18.5206,
    "ARG_OF_PERICENTER": 86.9934,
    "MEAN_ANOMALY": 273.1211,
    "EPHEMERIS_TYPE": 0,
    "CLASSIFICATION_TYPE": "U",
    "NORAD_CAT_ID": 47771,
    "ELEMENT_SET_NO": 999,
    "REV_AT_EPOCH": 25997,
    "BSTAR": 0.00056931,
    "MEAN_MOTION_DOT": 8.206e-05,
    "MEAN_MOTION_DDOT": 0.0,
    "TLE_LINE1": "1 47771U 21017BB  25315.20384565  .00008206  00000+0  56931-3 0  9998",
    "TLE_LINE2": "2 47771  53.0558  18.5206 0001364  86.9934 273.1211 15.06388564259974",
    "COMMENT": "Grouped by shell and plane from TLE"
  },
  {
    "OBJECT_NAME": "STARLINK-2706",
    "OBJECT_ID": "21040BF",
    "EPOCH": "2025-11-11T03:53:12.670944",
    "MEAN_MOTION": 15.06394355,
    "ECCENTRICITY": 0.0001569,
    "INCLINATION": 53.0539,
    "RA_OF_ASC_NODE": 13.989,
    "ARG_OF_PERICENTER": 98.014,
    "MEAN_ANOMALY": 262.1027,
    "EPHEMERIS_TYPE": 0,
    "CLASSIFICATION_TYPE": "U",
    "NORAD_CAT_ID": 48481,
    "ELEMENT_SET_NO": 999,
    "REV_AT_EPOCH": 24847,
    "BSTAR": 0.00036157,
    "MEAN_MOTION_DOT": 5.107e-05,
    "MEAN_MOTION_DDOT": 0.0,
    "TLE_LINE1": "1 48481U 21040BF  25315.16195221  .00005107  00000+0  36157-3 0  9992",
    "TLE_LINE2": "2 48481  53.0539  13.9890 0001569  98.0140 262.1027 15.06394355248471",
    "COMMENT": "Grouped by shell and plane from TLE"
  }
]